SCD 1                   
1 22490U 93009B   25106.77348359  .00000713  00000+0  14481-3 0  9999
2 22490  24.9707 319.8094 0041932 306.0112 101.7575 14.45819498699333
TECHSAT 1B (GO-32)      
1 25397U 98043D   25106.88113216  .00000392  00000+0  18989-3 0  9995
2 25397  98.9672  84.8910 0001784  41.2609 318.8704 14.24297340390640
SCD 2                   
1 25504U 98060A   25106.62509897  .00000749  00000+0  15885-3 0  9998
2 25504  24.9941 182.2281 0016595 296.8017 220.7938 14.45261873398541
DLR-TUBSAT              
1 25757U 99029B   25106.90575453  .00000543  00000+0  14530-3 0  9994
2 25757  98.6321  84.3645 0013732 202.3948 157.6648 14.52247912371376
TERRA                   
1 25994U 99068A   25106.92228457  .00001754  00000+0  36966-3 0  9993
2 25994  98.0033 166.9538 0003516 119.4563 292.7546 14.60633480347370
MAROC-TUBSAT            
1 27004U 01056D   25106.96493912  .00000009  00000+0  62352-4 0  9992
2 27004  99.7719 271.4576 0020241 152.8687 359.2232 13.70239441167818
AQUA                    
1 27424U 02022A   25106.92735307  .00004427  00000+0  90905-3 0  9997
2 27424  98.3733  64.5320 0000972 106.2251 345.1584 14.61150183221004
IRS-P6 (RESOURCESAT-1)  
1 28051U 03046A   25106.96464300  .00000600  00000+0  21571-3 0  9999
2 28051  98.2468 158.0137 0064595 179.1501 302.1852 14.35945853119350
SHIYAN 1 (SY-1)         
1 28220U 04012A   25106.70933714  .00018356  00000+0  80831-3 0  9994
2 28220  97.9227 154.9159 0008866  78.6361 281.5869 15.21864125145997
AURA                    
1 28376U 04026A   25106.94907528  .00004212  00000+0  88170-3 0  9991
2 28376  98.2900  56.6700 0001305  91.6467 268.4882 14.60292035103983
IRS-P5 (CARTOSAT-1)     
1 28649U 05017A   25106.71557930  .00003635  00000+0  38777-3 0  9994
2 28649  97.5727 143.5229 0002468  74.0953 286.0537 14.89429539 80308
SINAH 1                 
1 28893U 05043D   25106.88768070  .00001683  00000+0  33248-3 0  9990
2 28893  98.2281 235.3296 0014940 167.2715 192.8867 14.63649116 38158
EROS B                  
1 29079U 06014A   25106.90852593  .00160274  00000+0  46040-2 0  9998
2 29079  97.3400 220.0562 0006912 233.3737 126.6872 15.35159231 53730
RESURS-DK 1             
1 29228U 06021A   25106.83875632  .00008832  00000+0  53851-3 0  9993
2 29228  69.9357   1.0051 0007862 261.5735  98.4539 15.10627110 38130
