[
  {
    "OBJECT_NAME": "SCD 1",
    "OBJECT_ID": "1993-009B",
    "EPOCH": "2025-04-16T18:33:48.982176",
    "MEAN_MOTION": 14.45819498,
    "ECCENTRICITY": 0.0041932,
    "INCLINATION": 24.9707,
    "RA_OF_ASC_NODE": 319.8094,
    "ARG_OF_PERICENTER": 306.0112,
    "MEAN_ANOMALY": 101.7575,
    "EPHEMERIS_TYPE": 0,
    "CLASSIFICATION_TYPE": "U",
    "NORAD_CAT_ID": 22490,
    "ELEMENT_SET_NO": 999,
    "REV_AT_EPOCH": 69933,
    "BSTAR": 0.00014481,
    "MEAN_MOTION_DOT": 7.13e-6,
    "MEAN_MOTION_DDOT": 0
  },
  {
    "OBJECT_NAME": "TECHSAT 1B (GO-32)",
    "OBJECT_ID": "1998-043D",
    "EPOCH": "2025-04-16T21:08:49.818624",
    "MEAN_MOTION": 14.2429734,
    "ECCENTRICITY": 0.0001784,
    "INCLINATION": 98.9672,
    "RA_OF_ASC_NODE": 84.891,
    "ARG_OF_PERICENTER": 41.2609,
    "MEAN_ANOMALY": 318.8704,
    "EPHEMERIS_TYPE": 0,
    "CLASSIFICATION_TYPE": "U",
    "NORAD_CAT_ID": 25397,
    "ELEMENT_SET_NO": 999,
    "REV_AT_EPOCH": 39064,
    "BSTAR": 0.00018989,
    "MEAN_MOTION_DOT": 3.92e-6,
    "MEAN_MOTION_DDOT": 0
  },
  {
    "OBJECT_NAME": "SCD 2",
    "OBJECT_ID": "1998-060A",
    "EPOCH": "2025-04-16T15:00:08.551008",
    "MEAN_MOTION": 14.45261873,
    "ECCENTRICITY": 0.0016595,
    "INCLINATION": 24.9941,
    "RA_OF_ASC_NODE": 182.2281,
    "ARG_OF_PERICENTER": 296.8017,
    "MEAN_ANOMALY": 220.7938,
    "EPHEMERIS_TYPE": 0,
    "CLASSIFICATION_TYPE": "U",
    "NORAD_CAT_ID": 25504,
    "ELEMENT_SET_NO": 999,
    "REV_AT_EPOCH": 39854,
    "BSTAR": 0.00015885,
    "MEAN_MOTION_DOT": 7.49e-6,
    "MEAN_MOTION_DDOT": 0
  },
  {
    "OBJECT_NAME": "DLR-TUBSAT",
    "OBJECT_ID": "1999-029B",
    "EPOCH": "2025-04-16T21:44:17.191392",
    "MEAN_MOTION": 14.52247912,
    "ECCENTRICITY": 0.0013732,
    "INCLINATION": 98.6321,
    "RA_OF_ASC_NODE": 84.3645,
    "ARG_OF_PERICENTER": 202.3948,
    "MEAN_ANOMALY": 157.6648,
    "EPHEMERIS_TYPE": 0,
    "CLASSIFICATION_TYPE": "U",
    "NORAD_CAT_ID": 25757,
    "ELEMENT_SET_NO": 999,
    "REV_AT_EPOCH": 37137,
    "BSTAR": 0.0001453,
    "MEAN_MOTION_DOT": 5.43e-6,
    "MEAN_MOTION_DDOT": 0
  },
  {
    "OBJECT_NAME": "TERRA",
    "OBJECT_ID": "1999-068A",
    "EPOCH": "2025-04-16T22:08:05.386848",
    "MEAN_MOTION": 14.6063348,
    "ECCENTRICITY": 0.0003516,
    "INCLINATION": 98.0033,
    "RA_OF_ASC_NODE": 166.9538,
    "ARG_OF_PERICENTER": 119.4563,
    "MEAN_ANOMALY": 292.7546,
    "EPHEMERIS_TYPE": 0,
    "CLASSIFICATION_TYPE": "U",
    "NORAD_CAT_ID": 25994,
    "ELEMENT_SET_NO": 999,
    "REV_AT_EPOCH": 34737,
    "BSTAR": 0.00036966,
    "MEAN_MOTION_DOT": 1.754e-5,
    "MEAN_MOTION_DDOT": 0
  },
  {
    "OBJECT_NAME": "MAROC-TUBSAT",
    "OBJECT_ID": "2001-056D",
    "EPOCH": "2025-04-16T23:09:30.739968",
    "MEAN_MOTION": 13.70239441,
    "ECCENTRICITY": 0.0020241,
    "INCLINATION": 99.7719,
    "RA_OF_ASC_NODE": 271.4576,
    "ARG_OF_PERICENTER": 152.8687,
    "MEAN_ANOMALY": 359.2232,
    "EPHEMERIS_TYPE": 0,
    "CLASSIFICATION_TYPE": "U",
    "NORAD_CAT_ID": 27004,
    "ELEMENT_SET_NO": 999,
    "REV_AT_EPOCH": 16781,
    "BSTAR": 6.2352e-5,
    "MEAN_MOTION_DOT": 9.0e-8,
    "MEAN_MOTION_DDOT": 0
  },
  {
    "OBJECT_NAME": "AQUA",
    "OBJECT_ID": "2002-022A",
    "EPOCH": "2025-04-16T22:15:23.305248",
    "MEAN_MOTION": 14.61150183,
    "ECCENTRICITY": 9.72e-5,
    "INCLINATION": 98.3733,
    "RA_OF_ASC_NODE": 64.532,
    "ARG_OF_PERICENTER": 106.2251,
    "MEAN_ANOMALY": 345.1584,
    "EPHEMERIS_TYPE": 0,
    "CLASSIFICATION_TYPE": "U",
    "NORAD_CAT_ID": 27424,
    "ELEMENT_SET_NO": 999,
    "REV_AT_EPOCH": 22100,
    "BSTAR": 0.00090905,
    "MEAN_MOTION_DOT": 4.427e-5,
    "MEAN_MOTION_DDOT": 0
  },
  {
    "OBJECT_NAME": "IRS-P6 (RESOURCESAT-1)",
    "OBJECT_ID": "2003-046A",
    "EPOCH": "2025-04-16T23:09:05.155200",
    "MEAN_MOTION": 14.35945853,
    "ECCENTRICITY": 0.0064595,
    "INCLINATION": 98.2468,
    "RA_OF_ASC_NODE": 158.0137,
    "ARG_OF_PERICENTER": 179.1501,
    "MEAN_ANOMALY": 302.1852,
    "EPHEMERIS_TYPE": 0,
    "CLASSIFICATION_TYPE": "U",
    "NORAD_CAT_ID": 28051,
    "ELEMENT_SET_NO": 999,
    "REV_AT_EPOCH": 11935,
    "BSTAR": 0.00021571,
    "MEAN_MOTION_DOT": 6.0e-6,
    "MEAN_MOTION_DDOT": 0
  },
  {
    "OBJECT_NAME": "SHIYAN 1 (SY-1)",
    "OBJECT_ID": "2004-012A",
    "EPOCH": "2025-04-16T17:01:26.728896",
    "MEAN_MOTION": 15.21864125,
    "ECCENTRICITY": 0.0008866,
    "INCLINATION": 97.9227,
    "RA_OF_ASC_NODE": 154.9159,
    "ARG_OF_PERICENTER": 78.6361,
    "MEAN_ANOMALY": 281.5869,
    "EPHEMERIS_TYPE": 0,
    "CLASSIFICATION_TYPE": "U",
    "NORAD_CAT_ID": 28220,
    "ELEMENT_SET_NO": 999,
    "REV_AT_EPOCH": 14599,
    "BSTAR": 0.00080831,
    "MEAN_MOTION_DOT": 0.00018356,
    "MEAN_MOTION_DDOT": 0
  },
  {
    "OBJECT_NAME": "AURA",
    "OBJECT_ID": "2004-026A",
    "EPOCH": "2025-04-16T22:46:40.104192",
    "MEAN_MOTION": 14.60292035,
    "ECCENTRICITY": 0.0001305,
    "INCLINATION": 98.29,
    "RA_OF_ASC_NODE": 56.67,
    "ARG_OF_PERICENTER": 91.6467,
    "MEAN_ANOMALY": 268.4882,
    "EPHEMERIS_TYPE": 0,
    "CLASSIFICATION_TYPE": "U",
    "NORAD_CAT_ID": 28376,
    "ELEMENT_SET_NO": 999,
    "REV_AT_EPOCH": 10398,
    "BSTAR": 0.0008817,
    "MEAN_MOTION_DOT": 4.212e-5,
    "MEAN_MOTION_DDOT": 0
  },
  {
    "OBJECT_NAME": "IRS-P5 (CARTOSAT-1)",
    "OBJECT_ID": "2005-017A",
    "EPOCH": "2025-04-16T17:10:26.051520",
    "MEAN_MOTION": 14.89429539,
    "ECCENTRICITY": 0.0002468,
    "INCLINATION": 97.5727,
    "RA_OF_ASC_NODE": 143.5229,
    "ARG_OF_PERICENTER": 74.0953,
    "MEAN_ANOMALY": 286.0537,
    "EPHEMERIS_TYPE": 0,
    "CLASSIFICATION_TYPE": "U",
    "NORAD_CAT_ID": 28649,
    "ELEMENT_SET_NO": 999,
    "REV_AT_EPOCH": 8030,
    "BSTAR": 0.00038777,
    "MEAN_MOTION_DOT": 3.635e-5,
    "MEAN_MOTION_DDOT": 0
  },
  {
    "OBJECT_NAME": "SINAH 1",
    "OBJECT_ID": "2005-043D",
    "EPOCH": "2025-04-16T21:18:15.612480",
    "MEAN_MOTION": 14.63649116,
    "ECCENTRICITY": 0.001494,
    "INCLINATION": 98.2281,
    "RA_OF_ASC_NODE": 235.3296,
    "ARG_OF_PERICENTER": 167.2715,
    "MEAN_ANOMALY": 192.8867,
    "EPHEMERIS_TYPE": 0,
    "CLASSIFICATION_TYPE": "U",
    "NORAD_CAT_ID": 28893,
    "ELEMENT_SET_NO": 999,
    "REV_AT_EPOCH": 3815,
    "BSTAR": 0.00033248,
    "MEAN_MOTION_DOT": 1.683e-5,
    "MEAN_MOTION_DDOT": 0
  },
  {
    "OBJECT_NAME": "EROS B",
    "OBJECT_ID": "2006-014A",
    "EPOCH": "2025-04-16T21:48:16.640352",
    "MEAN_MOTION": 15.35159231,
    "ECCENTRICITY": 0.0006912,
    "INCLINATION": 97.34,
    "RA_OF_ASC_NODE": 220.0562,
    "ARG_OF_PERICENTER": 233.3737,
    "MEAN_ANOMALY": 126.6872,
    "EPHEMERIS_TYPE": 0,
    "CLASSIFICATION_TYPE": "U",
    "NORAD_CAT_ID": 29079,
    "ELEMENT_SET_NO": 999,
    "REV_AT_EPOCH": 5373,
    "BSTAR": 0.004604,
    "MEAN_MOTION_DOT": 0.00160274,
    "MEAN_MOTION_DDOT": 0
  },
  {
    "OBJECT_NAME": "RESURS-DK 1",
    "OBJECT_ID": "2006-021A",
    "EPOCH": "2025-04-16T20:07:48.546048",
    "MEAN_MOTION": 15.1062711,
    "ECCENTRICITY": 0.0007862,
    "INCLINATION": 69.9357,
    "RA_OF_ASC_NODE": 1.0051,
    "ARG_OF_PERICENTER": 261.5735,
    "MEAN_ANOMALY": 98.4539,
    "EPHEMERIS_TYPE": 0,
    "CLASSIFICATION_TYPE": "U",
    "NORAD_CAT_ID": 29228,
    "ELEMENT_SET_NO": 999,
    "REV_AT_EPOCH": 3813,
    "BSTAR": 0.00053851,
    "MEAN_MOTION_DOT": 8.832e-5,
    "MEAN_MOTION_DDOT": 0
  }
]
